start=new Date('2022-11-02T00:00:00.000Z').valueOf();
sats=[{"MEAN_MOTION_DOT":"0.00002932","ECCENTRICITY":"0.00022860","OBJECT_ID":"2020-038K","DECAY_DATE":null,"BSTAR":"0.00021571000000","COUNTRY_CODE":"US","MEAN_MOTION_DDOT":"0.0000000000000","TLE_LINE1":"1 45739U 20038K   22305.69846881  .00002932  00000-0  21571-3 0  9998","REF_FRAME":"TEME","EPOCH":"2022-11-01T16:45:47.705184","SEMIMAJOR_AXIS":"6925.355","GP_ID":"216682748","MEAN_ELEMENT_THEORY":"SGP4","TLE_LINE2":"2 45739  53.0548 291.3265 0002286  38.0442 322.0708 15.06397812132260","REV_AT_EPOCH":"13226","OBJECT_NAME":"STARLINK-1475","RCS_SIZE":"LARGE","TIME_SYSTEM":"UTC","ELEMENT_SET_NO":"999","CLASSIFICATION_TYPE":"U","EPHEMERIS_TYPE":"0","FILE":"3640431","APOAPSIS":"548.803","PERIOD":"95.592","CENTER_NAME":"EARTH","NORAD_CAT_ID":"45739","OBJECT_TYPE":"PAYLOAD","INCLINATION":"53.0548","LAUNCH_DATE":"2020-06-13","ARG_OF_PERICENTER":"38.0442","PERIAPSIS":"545.637","MEAN_ANOMALY":"322.0708","MEAN_MOTION":"15.06397812","RA_OF_ASC_NODE":"291.3265","SITE":"AFETR"},{"MEAN_MOTION_DOT":"0.00000900","ECCENTRICITY":"0.00018600","OBJECT_ID":"2020-038L","DECAY_DATE":null,"BSTAR":"0.00007930300000","COUNTRY_CODE":"US","TLE_LINE1":"1 45740U 20038L   22305.36030467  .00000900  00000-0  79303-4 0  9999","MEAN_MOTION_DDOT":"0.0000000000000","REF_FRAME":"TEME","EPOCH":"2022-11-01T08:38:50.323488","SEMIMAJOR_AXIS":"6925.336","GP_ID":"216657753","MEAN_ELEMENT_THEORY":"SGP4","TLE_LINE2":"2 45740  53.0545 332.8583 0001860  57.4170 302.6998 15.06404145131658","REV_AT_EPOCH":"13165","OBJECT_NAME":"STARLINK-1479","RCS_SIZE":"LARGE","TIME_SYSTEM":"UTC","ELEMENT_SET_NO":"999","CLASSIFICATION_TYPE":"U","EPHEMERIS_TYPE":"0","FILE":"3640409","APOAPSIS":"548.489","CENTER_NAME":"EARTH","PERIOD":"95.592","NORAD_CAT_ID":"45740","OBJECT_TYPE":"PAYLOAD","INCLINATION":"53.0545","LAUNCH_DATE":"2020-06-13","ARG_OF_PERICENTER":"57.4170","PERIAPSIS":"545.913","MEAN_ANOMALY":"302.6998","MEAN_MOTION":"15.06404145","RA_OF_ASC_NODE":"332.8583","SITE":"AFETR"},{"ELEMENT_SET_NO":"999","TIME_SYSTEM":"UTC","CLASSIFICATION_TYPE":"U","EPHEMERIS_TYPE":"0","OBJECT_NAME":"STARLINK-1480","RCS_SIZE":"LARGE","PERIOD":"95.592","NORAD_CAT_ID":"45741","CENTER_NAME":"EARTH","FILE":"3640431","APOAPSIS":"548.504","ARG_OF_PERICENTER":"45.9022","PERIAPSIS":"545.912","OBJECT_TYPE":"PAYLOAD","LAUNCH_DATE":"2020-06-13","INCLINATION":"53.0540","MEAN_MOTION":"15.06401748","RA_OF_ASC_NODE":"330.8927","SITE":"AFETR","MEAN_ANOMALY":"314.2120","MEAN_MOTION_DOT":"0.00003208","ECCENTRICITY":"0.00018710","BSTAR":"0.00023414000000","OBJECT_ID":"2020-038M","DECAY_DATE":null,"REF_FRAME":"TEME","EPOCH":"2022-11-01T19:05:09.131712","GP_ID":"216682250","SEMIMAJOR_AXIS":"6925.343","COUNTRY_CODE":"US","TLE_LINE1":"1 45741U 20038M   22305.79524458  .00003208  00000-0  23414-3 0  9990","MEAN_MOTION_DDOT":"0.0000000000000","TLE_LINE2":"2 45741  53.0540 330.8927 0001871  45.9022 314.2120 15.06401748131735","REV_AT_EPOCH":"13173","MEAN_ELEMENT_THEORY":"SGP4"},{"EPHEMERIS_TYPE":"0","CLASSIFICATION_TYPE":"U","TIME_SYSTEM":"UTC","ELEMENT_SET_NO":"999","RCS_SIZE":"LARGE","OBJECT_NAME":"STARLINK-1481","PERIOD":"95.593","CENTER_NAME":"EARTH","NORAD_CAT_ID":"45742","APOAPSIS":"548.601","FILE":"3640265","PERIAPSIS":"545.878","ARG_OF_PERICENTER":"51.0691","LAUNCH_DATE":"2020-06-13","INCLINATION":"53.0557","OBJECT_TYPE":"PAYLOAD","SITE":"AFETR","RA_OF_ASC_NODE":"330.9233","MEAN_MOTION":"15.06391526","MEAN_ANOMALY":"309.0473","ECCENTRICITY":"0.00019660","MEAN_MOTION_DOT":"0.00002343","BSTAR":"0.00017617000000","DECAY_DATE":null,"OBJECT_ID":"2020-038N","GP_ID":"216634059","SEMIMAJOR_AXIS":"6925.375","EPOCH":"2022-11-01T18:54:32.305824","REF_FRAME":"TEME","TLE_LINE1":"1 45742U 20038N   22305.78787391  .00002343  00000-0  17617-3 0  9994","MEAN_MOTION_DDOT":"0.0000000000000","COUNTRY_CODE":"US","REV_AT_EPOCH":"13283","TLE_LINE2":"2 45742  53.0557 330.9233 0001966  51.0691 309.0473 15.06391526132837","MEAN_ELEMENT_THEORY":"SGP4"},{"PERIAPSIS":"545.667","ARG_OF_PERICENTER":"39.8559","LAUNCH_DATE":"2020-06-13","INCLINATION":"53.0558","OBJECT_TYPE":"PAYLOAD","SITE":"AFETR","RA_OF_ASC_NODE":"332.8687","MEAN_MOTION":"15.06399204","MEAN_ANOMALY":"320.2594","EPHEMERIS_TYPE":"0","CLASSIFICATION_TYPE":"U","ELEMENT_SET_NO":"999","TIME_SYSTEM":"UTC","RCS_SIZE":"LARGE","OBJECT_NAME":"STARLINK-1483","NORAD_CAT_ID":"45743","PERIOD":"95.592","CENTER_NAME":"EARTH","APOAPSIS":"548.765","FILE":"3640409","GP_ID":"216657010","SEMIMAJOR_AXIS":"6925.351","EPOCH":"2022-11-01T08:10:55.949376","REF_FRAME":"TEME","TLE_LINE1":"1 45743U 20038P   22305.34092534  .00000005  00000-0  19273-4 0  9999","MEAN_MOTION_DDOT":"0.0000000000000","COUNTRY_CODE":"US","REV_AT_EPOCH":"13165","TLE_LINE2":"2 45743  53.0558 332.8687 0002237  39.8559 320.2594 15.06399204131651","MEAN_ELEMENT_THEORY":"SGP4","ECCENTRICITY":"0.00022370","MEAN_MOTION_DOT":"0.00000005","BSTAR":"0.00001927300000","DECAY_DATE":null,"OBJECT_ID":"2020-038P"},{"LAUNCH_DATE":"2020-06-13","INCLINATION":"53.0542","OBJECT_TYPE":"PAYLOAD","ARG_OF_PERICENTER":"46.8494","PERIAPSIS":"545.873","MEAN_ANOMALY":"313.2661","SITE":"AFETR","MEAN_MOTION":"15.06388480","RA_OF_ASC_NODE":"330.6871","OBJECT_NAME":"STARLINK-1500","RCS_SIZE":"LARGE","CLASSIFICATION_TYPE":"U","EPHEMERIS_TYPE":"0","ELEMENT_SET_NO":"999","TIME_SYSTEM":"UTC","APOAPSIS":"548.624","FILE":"3640431","PERIOD":"95.593","NORAD_CAT_ID":"45744","CENTER_NAME":"EARTH","MEAN_MOTION_DDOT":"0.0000000000000","TLE_LINE1":"1 45744U 20038Q   22305.84317558  .00001122  00000-0  94215-4 0  9991","COUNTRY_CODE":"US","GP_ID":"216683497","SEMIMAJOR_AXIS":"6925.384","REF_FRAME":"TEME","EPOCH":"2022-11-01T20:14:10.370112","MEAN_ELEMENT_THEORY":"SGP4","TLE_LINE2":"2 45744  53.0542 330.6871 0001986  46.8494 313.2661 15.06388480131732","REV_AT_EPOCH":"13173","ECCENTRICITY":"0.00019860","MEAN_MOTION_DOT":"0.00001122","DECAY_DATE":null,"OBJECT_ID":"2020-038Q","BSTAR":"0.00009421500000"},{"ARG_OF_PERICENTER":"51.2190","PERIAPSIS":"545.873","OBJECT_TYPE":"PAYLOAD","INCLINATION":"53.0560","LAUNCH_DATE":"2020-06-13","MEAN_MOTION":"15.06399552","RA_OF_ASC_NODE":"331.0304","SITE":"AFETR","MEAN_ANOMALY":"308.8972","ELEMENT_SET_NO":"999","TIME_SYSTEM":"UTC","CLASSIFICATION_TYPE":"U","EPHEMERIS_TYPE":"0","OBJECT_NAME":"STARLINK-1503","RCS_SIZE":"LARGE","CENTER_NAME":"EARTH","PERIOD":"95.592","NORAD_CAT_ID":"45745","FILE":"3640262","APOAPSIS":"548.557","REF_FRAME":"TEME","EPOCH":"2022-11-01T18:22:41.813472","GP_ID":"216634018","SEMIMAJOR_AXIS":"6925.350","COUNTRY_CODE":"US","MEAN_MOTION_DDOT":"0.0000000000000","TLE_LINE1":"1 45745U 20038R   22305.76576173  .00001974  00000-0  15137-3 0  9993","TLE_LINE2":"2 45745  53.0560 331.0304 0001938  51.2190 308.8972 15.06399552132647","REV_AT_EPOCH":"13264","MEAN_ELEMENT_THEORY":"SGP4","MEAN_MOTION_DOT":"0.00001974","ECCENTRICITY":"0.00019380","BSTAR":"0.00015137000000","OBJECT_ID":"2020-038R","DECAY_DATE":null},{"OBJECT_ID":"2020-038S","DECAY_DATE":null,"BSTAR":"0.00010711000000","MEAN_MOTION_DOT":"0.00001314","ECCENTRICITY":"0.00021420","MEAN_ELEMENT_THEORY":"SGP4","TLE_LINE2":"2 45746  53.0534 330.9754 0002142  45.8899 314.2265 15.06398874132641","REV_AT_EPOCH":"13264","COUNTRY_CODE":"US","MEAN_MOTION_DDOT":"0.0000000000000","TLE_LINE1":"1 45746U 20038S   22305.78050259  .00001314  00000-0  10711-3 0  9999","REF_FRAME":"TEME","EPOCH":"2022-11-01T18:43:55.423776","GP_ID":"216633513","SEMIMAJOR_AXIS":"6925.352","FILE":"3640262","APOAPSIS":"548.700","PERIOD":"95.592","NORAD_CAT_ID":"45746","CENTER_NAME":"EARTH","OBJECT_NAME":"STARLINK-1504","RCS_SIZE":"LARGE","ELEMENT_SET_NO":"999","TIME_SYSTEM":"UTC","CLASSIFICATION_TYPE":"U","EPHEMERIS_TYPE":"0","MEAN_ANOMALY":"314.2265","MEAN_MOTION":"15.06398874","RA_OF_ASC_NODE":"330.9754","SITE":"AFETR","OBJECT_TYPE":"PAYLOAD","INCLINATION":"53.0534","LAUNCH_DATE":"2020-06-13","ARG_OF_PERICENTER":"45.8899","PERIAPSIS":"545.734"},{"COUNTRY_CODE":"US","TLE_LINE1":"1 45747U 20038T   22305.78419321  .00000296  00000-0  38776-4 0  9999","MEAN_MOTION_DDOT":"0.0000000000000","EPOCH":"2022-11-01T18:49:14.293344","REF_FRAME":"TEME","GP_ID":"216633517","SEMIMAJOR_AXIS":"6925.357","MEAN_ELEMENT_THEORY":"SGP4","REV_AT_EPOCH":"13264","TLE_LINE2":"2 45747  53.0548 330.9545 0001827  42.2927 317.8202 15.06397270132646","MEAN_MOTION_DOT":"0.00000296","ECCENTRICITY":"0.00018270","OBJECT_ID":"2020-038T","DECAY_DATE":null,"BSTAR":"0.00003877600000","OBJECT_TYPE":"PAYLOAD","INCLINATION":"53.0548","LAUNCH_DATE":"2020-06-13","PERIAPSIS":"545.957","ARG_OF_PERICENTER":"42.2927","MEAN_ANOMALY":"317.8202","RA_OF_ASC_NODE":"330.9545","MEAN_MOTION":"15.06397270","SITE":"AFETR","RCS_SIZE":"LARGE","OBJECT_NAME":"STARLINK-1506","ELEMENT_SET_NO":"999","TIME_SYSTEM":"UTC","EPHEMERIS_TYPE":"0","CLASSIFICATION_TYPE":"U","FILE":"3640262","APOAPSIS":"548.487","PERIOD":"95.592","CENTER_NAME":"EARTH","NORAD_CAT_ID":"45747"},{"MEAN_MOTION":"15.06399344","RA_OF_ASC_NODE":"330.9871","SITE":"AFETR","MEAN_ANOMALY":"306.8249","ARG_OF_PERICENTER":"53.2911","PERIAPSIS":"545.923","OBJECT_TYPE":"PAYLOAD","LAUNCH_DATE":"2020-06-13","INCLINATION":"53.0548","PERIOD":"95.592","CENTER_NAME":"EARTH","NORAD_CAT_ID":"45748","FILE":"3640289","APOAPSIS":"548.509","TIME_SYSTEM":"UTC","ELEMENT_SET_NO":"999","CLASSIFICATION_TYPE":"U","EPHEMERIS_TYPE":"0","OBJECT_NAME":"STARLINK-1507","RCS_SIZE":"LARGE","TLE_LINE2":"2 45748  53.0548 330.9871 0001867  53.2911 306.8249 15.06399344132652","REV_AT_EPOCH":"13265","MEAN_ELEMENT_THEORY":"SGP4","REF_FRAME":"TEME","EPOCH":"2022-11-01T18:31:57.124416","GP_ID":"216633521","SEMIMAJOR_AXIS":"6925.351","COUNTRY_CODE":"US","MEAN_MOTION_DDOT":"0.0000000000000","TLE_LINE1":"1 45748U 20038U   22305.77218894  .00000451  00000-0  49193-4 0  9999","BSTAR":"0.00004919300000","OBJECT_ID":"2020-038U","DECAY_DATE":null,"MEAN_MOTION_DOT":"0.00000451","ECCENTRICITY":"0.00018670"}];
